STARLINK-G10-27 STACK   
1 72000C 25212A   25264.43349815  .00012555  00000+0  20639-4 0    01
2 72000  53.1625  37.5255 0010787 266.8695   8.8399 16.02321127    18
STARLINK-G10-27 SINGLE  
1 72001C 25212B   25264.43349815  .00956340  00000+0  15434-2 0    06
2 72001  53.1624  37.5255 0010910 267.8962   7.8129 16.02316275    12
STARLINK-G10-61 STACK   
1 72000C 25210A   25261.44044607  .00012398  00000+0  21103-4 0    00
2 72000  53.1632  37.0782 0009399 271.9816   3.6583 16.01761130    14
STARLINK-G10-61 SINGLE  
1 72001C 25210B   25261.44044607  .00954950  00000+0  15961-2 0    03
2 72001  53.1631  37.0782 0009543 273.0904   2.5493 16.01755935    10
STARLINK-G17-12 STACK   
1 72000C 25211A   25262.72571759  .00017227  00000+0  26496-4 0    02
2 72000  97.6074 300.0616 0010748 248.6154 129.0323 16.04173645    18
STARLINK-G17-12 SINGLE  
1 72001C 25211B   25262.72571759  .01043900  00000+0  15721-2 0    08
2 72001  97.6073 300.0616 0010730 248.5615 129.0862 16.04174355    17
STARLINK-G17-12B1 STACK 
1 72000C 25211A   25262.72895833  .00017239  00000+0  26515-4 0    09
2 72000  97.6074 301.2314 0010748 248.6164 129.0313 16.04173646    17
STARLINK-G17-12B1 SINGLE
1 72001C 25211B   25262.72895833  .01044200  00000+0  15726-2 0    09
2 72001  97.6073 301.2314 0010728 248.5869 129.0607 16.04174439    13
STARLINK-G17-12B2 STACK 
1 72000C 25211A   25262.73057870  .00017246  00000+0  26525-4 0    00
2 72000  97.6074 301.8164 0010748 248.6168 129.0308 16.04173647    15
STARLINK-G17-12B2 SINGLE
1 72001C 25211B   25262.73057870  .01044400  00000+0  15728-2 0    05
2 72001  97.6073 301.8164 0010727 248.5997 129.0480 16.04174482    10
